{
  "type": "FeatureCollection",
  "features": [
    {
      "type": "Feature",
      "properties": {
        "norad_id": 40069,
        "name": "METEOR-M 2",
        "group": "weather",
        "lat": 34.97627224456157,
        "lon": 149.20708926296135,
        "alt_km": 817.0517434272142,
        "timestamp": "2025-12-11T13:55:01.810514+00:00",
        "meta_object_name": "METEOR-M 2",
        "meta_object_id": "2014-037A",
        "meta_epoch": "2025-12-11T06:28:53.234112",
        "meta_mean_motion": 14.21386766,
        "meta_eccentricity": 0.0004903,
        "meta_inclination": 98.4903,
        "meta_ra_of_asc_node": 322.9108,
        "meta_arg_of_pericenter": 214.7615,
        "meta_mean_anomaly": 145.3243,
        "meta_ephemeris_type": 0,
        "meta_classification_type": "U",
        "meta_norad_cat_id": 40069,
        "meta_element_set_no": 999,
        "meta_rev_at_epoch": 59262,
        "meta_bstar": 0.00030002553,
        "meta_mean_motion_dot": 6.13e-06,
        "meta_mean_motion_ddot": 0,
        "tle_line1": "1 40069U 14037A   25345.27006058  .00000613  00000+0  30003-3 0  9999",
        "tle_line2": "2 40069  98.4903 322.9108 0004903 214.7615 145.3243 14.21386766592621"
      },
      "geometry": {
        "type": "Point",
        "coordinates": [
          149.20708926296135,
          34.97627224456157
        ]
      }
    },
    {
      "type": "Feature",
      "properties": {
        "norad_id": 40267,
        "name": "HIMAWARI-8",
        "group": "weather",
        "lat": 0.0035784772498687048,
        "lon": 69.95697030485489,
        "alt_km": 35789.74701145671,
        "timestamp": "2025-12-11T13:55:01.810527+00:00",
        "meta_object_name": "HIMAWARI-8",
        "meta_object_id": "2014-060A",
        "meta_epoch": "2025-12-11T05:37:15.120192",
        "meta_mean_motion": 1.00270271,
        "meta_eccentricity": 0.00012236,
        "meta_inclination": 0.0351,
        "meta_ra_of_asc_node": 196.4509,
        "meta_arg_of_pericenter": 105.3462,
        "meta_mean_anomaly": 3.3698,
        "meta_ephemeris_type": 0,
        "meta_classification_type": "U",
        "meta_norad_cat_id": 40267,
        "meta_element_set_no": 999,
        "meta_rev_at_epoch": 4087,
        "meta_bstar": 0,
        "meta_mean_motion_dot": -2.69e-06,
        "meta_mean_motion_ddot": 0,
        "tle_line1": "1 40267U 14060A   25345.23420278 -.00000269  00000+0  00000+0 0  9993",
        "tle_line2": "2 40267   0.0351 196.4509 0001223 105.3462   3.3698  1.00270271 40871"
      },
      "geometry": {
        "type": "Point",
        "coordinates": [
          69.95697030485489,
          0.0035784772498687048
        ]
      }
    },
    {
      "type": "Feature",
      "properties": {
        "norad_id": 40367,
        "name": "FENGYUN 2G",
        "group": "weather",
        "lat": -3.715804755496789,
        "lon": 29.002552875939656,
        "alt_km": 35795.09459032674,
        "timestamp": "2025-12-11T13:55:01.810539+00:00",
        "meta_object_name": "FENGYUN 2G",
        "meta_object_id": "2014-090A",
        "meta_epoch": "2025-12-10T20:22:55.693344",
        "meta_mean_motion": 1.00264635,
        "meta_eccentricity": 0.00031271,
        "meta_inclination": 5.1637,
        "meta_ra_of_asc_node": 75.1179,
        "meta_arg_of_pericenter": 194.7733,
        "meta_mean_anomaly": 215.2369,
        "meta_ephemeris_type": 0,
        "meta_classification_type": "U",
        "meta_norad_cat_id": 40367,
        "meta_element_set_no": 999,
        "meta_rev_at_epoch": 4011,
        "meta_bstar": 0,
        "meta_mean_motion_dot": -2.96e-06,
        "meta_mean_motion_ddot": 0,
        "tle_line1": "1 40367U 14090A   25344.84925571 -.00000296  00000+0  00000+0 0  9999",
        "tle_line2": "2 40367   5.1637  75.1179 0003127 194.7733 215.2369  1.00264635 40112"
      },
      "geometry": {
        "type": "Point",
        "coordinates": [
          29.002552875939656,
          -3.715804755496789
        ]
      }
    },
    {
      "type": "Feature",
      "properties": {
        "norad_id": 40732,
        "name": "METEOSAT-11 (MSG-4)",
        "group": "weather",
        "lat": -1.9983855870187874,
        "lon": -61.41670265066603,
        "alt_km": 35788.470760237346,
        "timestamp": "2025-12-11T13:55:01.810552+00:00",
        "meta_object_name": "METEOSAT-11 (MSG-4)",
        "meta_object_id": "2015-034A",
        "meta_epoch": "2025-12-11T04:59:33.728928",
        "meta_mean_motion": 1.00267015,
        "meta_eccentricity": 9.465e-05,
        "meta_inclination": 2.7315,
        "meta_ra_of_asc_node": 72.0057,
        "meta_arg_of_pericenter": 124.5533,
        "meta_mean_anomaly": 327.8196,
        "meta_ephemeris_type": 0,
        "meta_classification_type": "U",
        "meta_norad_cat_id": 40732,
        "meta_element_set_no": 999,
        "meta_rev_at_epoch": 533,
        "meta_bstar": 0,
        "meta_mean_motion_dot": 6.7e-07,
        "meta_mean_motion_ddot": 0,
        "tle_line1": "1 40732U 15034A   25345.20802927  .00000067  00000+0  00000+0 0  9999",
        "tle_line2": "2 40732   2.7315  72.0057 0000946 124.5533 327.8196  1.00267015  5338"
      },
      "geometry": {
        "type": "Point",
        "coordinates": [
          -61.41670265066603,
          -1.9983855870187874
        ]
      }
    },
    {
      "type": "Feature",
      "properties": {
        "norad_id": 41105,
        "name": "ELEKTRO-L 2",
        "group": "weather",
        "lat": -2.340964653740445,
        "lon": -85.31552300337198,
        "alt_km": 35769.90369604307,
        "timestamp": "2025-12-11T13:55:01.810564+00:00",
        "meta_object_name": "ELEKTRO-L 2",
        "meta_object_id": "2015-074A",
        "meta_epoch": "2025-12-11T02:11:38.541984",
        "meta_mean_motion": 1.00272182,
        "meta_eccentricity": 0.00038781,
        "meta_inclination": 6.222,
        "meta_ra_of_asc_node": 72.8471,
        "meta_arg_of_pericenter": 199.5378,
        "meta_mean_anomaly": 186.0824,
        "meta_ephemeris_type": 0,
        "meta_classification_type": "U",
        "meta_norad_cat_id": 41105,
        "meta_element_set_no": 999,
        "meta_rev_at_epoch": 3662,
        "meta_bstar": 0,
        "meta_mean_motion_dot": -1.12e-06,
        "meta_mean_motion_ddot": 0,
        "tle_line1": "1 41105U 15074A   25345.09141831 -.00000112  00000+0  00000+0 0  9997",
        "tle_line2": "2 41105   6.2220  72.8471 0003878 199.5378 186.0824  1.00272182 36621"
      },
      "geometry": {
        "type": "Point",
        "coordinates": [
          -85.31552300337198,
          -2.340964653740445
        ]
      }
    },
    {
      "type": "Feature",
      "properties": {
        "norad_id": 41752,
        "name": "INSAT-3DR",
        "group": "weather",
        "lat": -0.07819201330732499,
        "lon": 3.457599914225556,
        "alt_km": 35789.54595495391,
        "timestamp": "2025-12-11T13:55:01.810576+00:00",
        "meta_object_name": "INSAT-3DR",
        "meta_object_id": "2016-054A",
        "meta_epoch": "2025-12-11T03:35:26.786112",
        "meta_mean_motion": 1.00270645,
        "meta_eccentricity": 0.00144362,
        "meta_inclination": 0.088,
        "meta_ra_of_asc_node": 86.584,
        "meta_arg_of_pericenter": 183.936,
        "meta_mean_anomaly": 297.4576,
        "meta_ephemeris_type": 0,
        "meta_classification_type": "U",
        "meta_norad_cat_id": 41752,
        "meta_element_set_no": 999,
        "meta_rev_at_epoch": 3393,
        "meta_bstar": 0,
        "meta_mean_motion_dot": -7.1e-07,
        "meta_mean_motion_ddot": 0,
        "tle_line1": "1 41752U 16054A   25345.14961558 -.00000071  00000+0  00000+0 0  9990",
        "tle_line2": "2 41752   0.0880  86.5840 0014436 183.9360 297.4576  1.00270645 33939"
      },
      "geometry": {
        "type": "Point",
        "coordinates": [
          3.457599914225556,
          -0.07819201330732499
        ]
      }
    },
    {
      "type": "Feature",
      "properties": {
        "norad_id": 41836,
        "name": "HIMAWARI-9",
        "group": "weather",
        "lat": 0.009916879801217457,
        "lon": 70.07023384850446,
        "alt_km": 35790.83793695442,
        "timestamp": "2025-12-11T13:55:01.810588+00:00",
        "meta_object_name": "HIMAWARI-9",
        "meta_object_id": "2016-064A",
        "meta_epoch": "2025-12-11T05:37:15.120192",
        "meta_mean_motion": 1.0027103,
        "meta_eccentricity": 0.00011375,
        "meta_inclination": 0.0321,
        "meta_ra_of_asc_node": 90.0748,
        "meta_arg_of_pericenter": 180.5898,
        "meta_mean_anomaly": 34.621,
        "meta_ephemeris_type": 0,
        "meta_classification_type": "U",
        "meta_norad_cat_id": 41836,
        "meta_element_set_no": 999,
        "meta_rev_at_epoch": 3332,
        "meta_bstar": 0,
        "meta_mean_motion_dot": -2.69e-06,
        "meta_mean_motion_ddot": 0,
        "tle_line1": "1 41836U 16064A   25345.23420278 -.00000269  00000+0  00000+0 0  9992",
        "tle_line2": "2 41836   0.0321  90.0748 0001137 180.5898  34.6210  1.00271030 33320"
      },
      "geometry": {
        "type": "Point",
        "coordinates": [
          70.07023384850446,
          0.009916879801217457
        ]
      }
    }
  ]
}